IRIDIUM 112             
1 41925U 17003J   23234.90835943  .00000360  00000+0  12162-3 0  9990
2 41925  86.4031 158.4803 0002047  85.2799 274.8630 14.34216133345771
IRIDIUM 111             
1 41926U 17003K   23234.89567878  .00000085  00000+0  23319-4 0  9999
2 41926  86.4031 158.5334 0002459  88.2521 271.8956 14.34216584345795
IRIDIUM 113             
1 42803U 17039A   23234.94540913  .00000051  00000+0  11317-4 0  9998
2 42803  86.3978  32.2499 0002222  97.5227 262.6221 14.34218763323669
IRIDIUM 123             
1 42804U 17039B   23234.63803740  .00000091  00000+0  25259-4 0  9999
2 42804  86.3925  63.8997 0001981  98.2724 261.8696 14.34218517322388
IRIDIUM 120             
1 42805U 17039C   23234.93907073  .00000381  00000+0  12896-3 0  9991
2 42805  86.3959  32.1675 0002148  92.7779 267.3663 14.34218461323657
IRIDIUM 115             
1 42806U 17039D   23234.48954782  .00000561  00000+0  16062-3 0  9990
2 42806  86.4503  32.3390 0002381  99.1783 260.9687 14.43285925325741
IRIDIUM 118             
1 42807U 17039E   23235.08836567  .00000088  00000+0  24358-4 0  9990
2 42807  86.3924  63.7138 0002055  89.6818 270.4614 14.34216878322459
IRIDIUM 117             
1 42808U 17039F   23235.03761904  .00000095  00000+0  27017-4 0  9991
2 42808  86.3923  63.7018 0002163  91.6119 268.5324 14.34217489322470
